{"type": "FeatureCollection", "features": [ {"type": "Feature", "properties": {"norad_id": 33825, "name": "COSMOS 2251 DEB", "group": "cosmos-2251-debris", "lat": -57.96968578404737, "lon": -8.55120811454312, "alt_km": 627.1350926429786, "timestamp": "2025-12-17T09:00:17.540551+00:00", "meta": {"OBJECT_NAME": "COSMOS 2251 DEB", "OBJECT_ID": "1993-036BS", "EPOCH": "2025-12-16T12:35:16.144224", "MEAN_MOTION": 14.69796523, "ECCENTRICITY": 0.00847417, "INCLINATION": 73.9852, "RA_OF_ASC_NODE": 20.4314, "ARG_OF_PERICENTER": 346.5589, "MEAN_ANOMALY": 132.827, "EPHEMERIS_TYPE": 0, "CLASSIFICATION_TYPE": "U", "NORAD_CAT_ID": 33825, "ELEMENT_SET_NO": 999, "REV_AT_EPOCH": 88935, "BSTAR": 0.00056703926, "MEAN_MOTION_DOT": 3.544e-05, "MEAN_MOTION_DDOT": 0}, "tle": {"line1": "1 33825U 93036BS  25350.52449241  .00003544  00000+0  56704-3 0  9998", "line2": "2 33825  73.9852  20.4314 0084741 346.5589 132.8270 14.69796523889353"}}, "geometry": {"type": "Point", "coordinates": [-8.55120811454312, -57.96968578404737]}}, {"type": "Feature", "properties": {"norad_id": 33826, "name": "COSMOS 2251 DEB", "group": "cosmos-2251-debris", "lat": -63.07235913926388, "lon": -104.6108524614523, "alt_km": 783.2436631985593, "timestamp": "2025-12-17T09:00:17.540562+00:00", "meta": {"OBJECT_NAME": "COSMOS 2251 DEB", "OBJECT_ID": "1993-036BT", "EPOCH": "2025-12-16T12:20:10.279968", "MEAN_MOTION": 14.51741688, "ECCENTRICITY": 0.00828106, "INCLINATION": 74.0652, "RA_OF_ASC_NODE": 42.7803, "ARG_OF_PERICENTER": 85.8915, "MEAN_ANOMALY": 342.8038, "EPHEMERIS_TYPE": 0, "CLASSIFICATION_TYPE": "U", "NORAD_CAT_ID": 33826, "ELEMENT_SET_NO": 999, "REV_AT_EPOCH": 87824, "BSTAR": 0.00051132093, "MEAN_MOTION_DOT": 2.12e-05, "MEAN_MOTION_DDOT": 0}, "tle": {"line1": "1 33826U 93036BT  25350.51400787  .00002120  00000+0  51132-3 0  9999", "line2": "2 33826  74.0652  42.7803 0082810  85.8915 342.8038 14.51741688878249"}}, "geometry": {"type": "Point", "coordinates": [-104.6108524614523, -63.07235913926388]}}, {"type": "Feature", "properties": {"norad_id": 33828, "name": "COSMOS 2251 DEB", "group": "cosmos-2251-debris", "lat": 20.422440866098544, "lon": -124.41490054854088, "alt_km": 740.0041255088627, "timestamp": "2025-12-17T09:00:17.540572+00:00", "meta": {"OBJECT_NAME": "COSMOS 2251 DEB", "OBJECT_ID": "1993-036BV", "EPOCH": "2025-12-16T23:00:29.920896", "MEAN_MOTION": 14.44345839, "ECCENTRICITY": 0.00294844, "INCLINATION": 74.0457, "RA_OF_ASC_NODE": 230.2449, "ARG_OF_PERICENTER": 302.5307, "MEAN_ANOMALY": 73.6254, "EPHEMERIS_TYPE": 0, "CLASSIFICATION_TYPE": "U", "NORAD_CAT_ID": 33828, "ELEMENT_SET_NO": 999, "REV_AT_EPOCH": 88374, "BSTAR": 0.00038045768, "MEAN_MOTION_DOT": 1.29e-05, "MEAN_MOTION_DDOT": 0}, "tle": {"line1": "1 33828U 93036BV  25350.95867964  .00001290  00000+0  38046-3 0  9999", "line2": "2 33828  74.0457 230.2449 0029484 302.5307  73.6254 14.44345839883746"}}, "geometry": {"type": "Point", "coordinates": [-124.41490054854088, 20.422440866098544]}}, {"type": "Feature", "properties": {"norad_id": 33830, "name": "COSMOS 2251 DEB", "group": "cosmos-2251-debris", "lat": 71.10581501377867, "lon": -81.93902737714268, "alt_km": 636.5043732200684, "timestamp": "2025-12-17T09:00:17.540582+00:00", "meta": {"OBJECT_NAME": "COSMOS 2251 DEB", "OBJECT_ID": "1993-036BX", "EPOCH": "2025-12-16T23:22:49.145088", "MEAN_MOTION": 14.76947899, "ECCENTRICITY": 0.00424961, "INCLINATION": 74.0317, "RA_OF_ASC_NODE": 222.0637, "ARG_OF_PERICENTER": 341.2601, "MEAN_ANOMALY": 126.7028, "EPHEMERIS_TYPE": 0, "CLASSIFICATION_TYPE": "U", "NORAD_CAT_ID": 33830, "ELEMENT_SET_NO": 999, "REV_AT_EPOCH": 89534, "BSTAR": 0.0006128746, "MEAN_MOTION_DOT": 4.347e-05, "MEAN_MOTION_DDOT": 0}, "tle": {"line1": "1 33830U 93036BX  25350.97417992  .00004347  00000+0  61287-3 0  9995", "line2": "2 33830  74.0317 222.0637 0042496 341.2601 126.7028 14.76947899895344"}}, "geometry": {"type": "Point", "coordinates": [-81.93902737714268, 71.10581501377867]}}, {"type": "Feature", "properties": {"norad_id": 33832, "name": "COSMOS 2251 DEB", "group": "cosmos-2251-debris", "lat": -36.85713050541603, "lon": 33.50715930297345, "alt_km": 679.9884185566389, "timestamp": "2025-12-17T09:00:17.540592+00:00", "meta": {"OBJECT_NAME": "COSMOS 2251 DEB", "OBJECT_ID": "1993-036BZ", "EPOCH": "2025-12-16T20:34:17.006592", "MEAN_MOTION": 14.60696314, "ECCENTRICITY": 0.00245509, "INCLINATION": 74.0536, "RA_OF_ASC_NODE": 202.1184, "ARG_OF_PERICENTER": 232.3307, "MEAN_ANOMALY": 143.1191, "EPHEMERIS_TYPE": 0, "CLASSIFICATION_TYPE": "U", "NORAD_CAT_ID": 33832, "ELEMENT_SET_NO": 999, "REV_AT_EPOCH": 88485, "BSTAR": 0.00096755999, "MEAN_MOTION_DOT": 4.707e-05, "MEAN_MOTION_DDOT": 0}, "tle": {"line1": "1 33832U 93036BZ  25350.85714128  .00004707  00000+0  96756-3 0  9994", "line2": "2 33832  74.0536 202.1184 0024550 232.3307 143.1191 14.60696314884853"}}, "geometry": {"type": "Point", "coordinates": [33.50715930297345, -36.85713050541603]}}, {"type": "Feature", "properties": {"norad_id": 33835, "name": "COSMOS 2251 DEB", "group": "cosmos-2251-debris", "lat": 71.1985244094368, "lon": 149.34467755871262, "alt_km": 661.8561014540528, "timestamp": "2025-12-17T09:00:17.540603+00:00", "meta": {"OBJECT_NAME": "COSMOS 2251 DEB", "OBJECT_ID": "1993-036CC", "EPOCH": "2025-12-16T08:16:07.341888", "MEAN_MOTION": 14.62289007, "ECCENTRICITY": 0.00543923, "INCLINATION": 74.057, "RA_OF_ASC_NODE": 94.214, "ARG_OF_PERICENTER": 146.7189, "MEAN_ANOMALY": 270.2911, "EPHEMERIS_TYPE": 0, "CLASSIFICATION_TYPE": "U", "NORAD_CAT_ID": 33835, "ELEMENT_SET_NO": 999, "REV_AT_EPOCH": 88842, "BSTAR": 0.00070468713, "MEAN_MOTION_DOT": 3.603e-05, "MEAN_MOTION_DDOT": 0}, "tle": {"line1": "1 33835U 93036CC  25350.34452942  .00003603  00000+0  70469-3 0  9991", "line2": "2 33835  74.0570  94.2140 0054392 146.7189 270.2911 14.62289007888427"}}, "geometry": {"type": "Point", "coordinates": [149.34467755871262, 71.1985244094368]}}, {"type": "Feature", "properties": {"norad_id": 33836, "name": "COSMOS 2251 DEB", "group": "cosmos-2251-debris", "lat": 32.37608427270813, "lon": -99.71290151027699, "alt_km": 621.8671691239442, "timestamp": "2025-12-17T09:00:17.540613+00:00", "meta": {"OBJECT_NAME": "COSMOS 2251 DEB", "OBJECT_ID": "1993-036CD", "EPOCH": "2025-12-16T20:12:15.448608", "MEAN_MOTION": 14.79694615, "ECCENTRICITY": 0.00226506, "INCLINATION": 73.9975, "RA_OF_ASC_NODE": 250.8553, "ARG_OF_PERICENTER": 102.4402, "MEAN_ANOMALY": 331.7824, "EPHEMERIS_TYPE": 0, "CLASSIFICATION_TYPE": "U", "NORAD_CAT_ID": 33836, "ELEMENT_SET_NO": 999, "REV_AT_EPOCH": 64149, "BSTAR": 0.000876724, "MEAN_MOTION_DOT": 6.585e-05, "MEAN_MOTION_DDOT": 0}, "tle": {"line1": "1 33836U 93036CD  25350.84184547  .00006585  00000+0  87672-3 0  9996", "line2": "2 33836  73.9975 250.8553 0022650 102.4402 331.7824 14.79694615641495"}}, "geometry": {"type": "Point", "coordinates": [-99.71290151027699, 32.37608427270813]}}, {"type": "Feature", "properties": {"norad_id": 33837, "name": "COSMOS 2251 DEB", "group": "cosmos-2251-debris", "lat": -64.77208255266112, "lon": -95.64861242495724, "alt_km": 705.8778904499013, "timestamp": "2025-12-17T09:00:17.540623+00:00", "meta": {"OBJECT_NAME": "COSMOS 2251 DEB", "OBJECT_ID": "1993-036CE", "EPOCH": "2025-12-16T07:01:38.002080", "MEAN_MOTION": 14.50709411, "ECCENTRICITY": 0.00358929, "INCLINATION": 74.0129, "RA_OF_ASC_NODE": 48.9089, "ARG_OF_PERICENTER": 270.0529, "MEAN_ANOMALY": 89.6518, "EPHEMERIS_TYPE": 0, "CLASSIFICATION_TYPE": "U", "NORAD_CAT_ID": 33837, "ELEMENT_SET_NO": 999, "REV_AT_EPOCH": 88847, "BSTAR": 0.00024479379, "MEAN_MOTION_DOT": 9.41e-06, "MEAN_MOTION_DDOT": 0}, "tle": {"line1": "1 33837U 93036CE  25350.29280095  .00000941  00000+0  24479-3 0  9997", "line2": "2 33837  74.0129  48.9089 0035892 270.0529  89.6518 14.50709411888473"}}, "geometry": {"type": "Point", "coordinates": [-95.64861242495724, -64.77208255266112]}}, {"type": "Feature", "properties": {"norad_id": 33838, "name": "COSMOS 2251 DEB", "group": "cosmos-2251-debris", "lat": 72.90403070866404, "lon": -150.321315950642, "alt_km": 743.1372756049441, "timestamp": "2025-12-17T09:00:17.540633+00:00", "meta": {"OBJECT_NAME": "COSMOS 2251 DEB", "OBJECT_ID": "1993-036CF", "EPOCH": "2025-12-16T21:33:14.475744", "MEAN_MOTION": 14.48376028, "ECCENTRICITY": 0.00274835, "INCLINATION": 74.036, "RA_OF_ASC_NODE": 142.0259, "ARG_OF_PERICENTER": 263.3271, "MEAN_ANOMALY": 213.7601, "EPHEMERIS_TYPE": 0, "CLASSIFICATION_TYPE": "U", "NORAD_CAT_ID": 33838, "ELEMENT_SET_NO": 999, "REV_AT_EPOCH": 88629, "BSTAR": 0.0003696057, "MEAN_MOTION_DOT": 1.362e-05, "MEAN_MOTION_DDOT": 0}, "tle": {"line1": "1 33838U 93036CF  25350.89808421  .00001362  00000+0  36961-3 0  9990", "line2": "2 33838  74.0360 142.0259 0027483 263.3271 213.7601 14.48376028886294"}}, "geometry": {"type": "Point", "coordinates": [-150.321315950642, 72.90403070866404]}}, {"type": "Feature", "properties": {"norad_id": 33839, "name": "COSMOS 2251 DEB", "group": "cosmos-2251-debris", "lat": -72.39997918134232, "lon": 133.11325180726857, "alt_km": 634.1761432553103, "timestamp": "2025-12-17T09:00:17.540643+00:00", "meta": {"OBJECT_NAME": "COSMOS 2251 DEB", "OBJECT_ID": "1993-036CG", "EPOCH": "2025-12-17T00:04:52.508928", "MEAN_MOTION": 14.6443112, "ECCENTRICITY": 0.00852333, "INCLINATION": 74.0378, "RA_OF_ASC_NODE": 198.2873, "ARG_OF_PERICENTER": 309.3698, "MEAN_ANOMALY": 169.2436, "EPHEMERIS_TYPE": 0, "CLASSIFICATION_TYPE": "U", "NORAD_CAT_ID": 33839, "ELEMENT_SET_NO": 999, "REV_AT_EPOCH": 89642, "BSTAR": 0.00018823266, "MEAN_MOTION_DOT": 1.016e-05, "MEAN_MOTION_DDOT": 0}, "tle": {"line1": "1 33839U 93036CG  25351.00338552  .00001016  00000+0  18823-3 0  9991", "line2": "2 33839  74.0378 198.2873 0085233 309.3698 169.2436 14.64431120896420"}}, "geometry": {"type": "Point", "coordinates": [133.11325180726857, -72.39997918134232]}}]}